{
  "norad_id": 57974,
  "name": "STARLINK-30489",
  "history": [
    {
      "epoch": "2026-03-28T19:52:58.093824",
      "apogee_km": 484.33560207983646,
      "perigee_km": 481.779669854046,
      "latitude_deg": 6.9084568334874294,
      "longitude_deg": 56.931215359829366,
      "semi_major_axis_km": 6861.194635966941,
      "eccentricity": 0.00018626,
      "inclination_deg": 43.0056,
      "raan_deg": 227.8859,
      "arg_perigee_deg": 293.9081,
      "mean_anomaly_deg": 66.1576,
      "mean_motion_rev_day": 15.27577148
    }
  ]
}